{
    "links": {
        "self": "http://www.neowsapp.com/rest/v1/neo/3339081?api_key=iIulBulltgU6a56xZRHN4H3l9WmuAYTsLGpBGhQ2"
    },
    "id": "3339081",
    "neo_reference_id": "3339081",
    "name": "(2006 QK40)",
    "designation": "2006 QK40",
    "nasa_jpl_url": "http://ssd.jpl.nasa.gov/sbdb.cgi?sstr=3339081",
    "absolute_magnitude_h": 24.0,
    "estimated_diameter": {
        "kilometers": {
            "estimated_diameter_min": 0.0421264611,
            "estimated_diameter_max": 0.0941976306
        },
        "meters": {
            "estimated_diameter_min": 42.1264610556,
            "estimated_diameter_max": 94.1976305719
        },
        "miles": {
            "estimated_diameter_min": 0.0261761612,
            "estimated_diameter_max": 0.0585316759
        },
        "feet": {
            "estimated_diameter_min": 138.2101784897,
            "estimated_diameter_max": 309.0473542854
        }
    },
    "is_potentially_hazardous_asteroid": false,
    "close_approach_data": [
        {
            "close_approach_date": "2006-08-18",
            "close_approach_date_full": "2006-Aug-18 15:39",
            "epoch_date_close_approach": 1155915540000,
            "relative_velocity": {
                "kilometers_per_second": "12.8346095854",
                "kilometers_per_hour": "46204.5945075325",
                "miles_per_hour": "28709.7381816387"
            },
            "miss_distance": {
                "astronomical": "0.0336576711",
                "lunar": "13.0928340579",
                "kilometers": "5035115.905720557",
                "miles": "3128675.9451834066"
            },
            "orbiting_body": "Earth"
        }
    ],
    "orbital_data": {
        "orbit_id": "11",
        "orbit_determination_date": "2017-04-06 09:08:15",
        "first_observation_date": "2006-08-25",
        "last_observation_date": "2006-09-19",
        "data_arc_in_days": 25,
        "observations_used": 27,
        "orbit_uncertainty": "8",
        "minimum_orbit_intersection": ".00626082",
        "jupiter_tisserand_invariant": "3.499",
        "epoch_osculation": "2453980.5",
        "eccentricity": ".5722333791814266",
        "semi_major_axis": "2.120956448752241",
        "inclination": "2.620633217557192",
        "ascending_node_longitude": "133.7378137932008",
        "orbital_period": "1128.22586852199",
        "perihelion_distance": ".907274372986108",
        "perihelion_argument": "143.3386964302898",
        "aphelion_distance": "3.334638524518374",
        "perihelion_time": "2453930.656348973406",
        "mean_anomaly": "15.90436354121241",
        "mean_motion": ".3190850432029279",
        "equinox": "J2000",
        "orbit_class": {
            "orbit_class_type": "APO",
            "orbit_class_description": "Near-Earth asteroid orbits which cross the Earth’s orbit similar to that of 1862 Apollo",
            "orbit_class_range": "a (semi-major axis) > 1.0 AU; q (perihelion) < 1.017 AU"
        }
    },
    "is_sentry_object": false
}